[{"OBJECT_NAME":"BEIDOU-3 G3 (PRN 143)","OBJECT_ID":"2020-040A","EPOCH":"2026-03-14T15:26:16.836288","MEAN_MOTION":1.00270704,"ECCENTRICITY":0.00048176,"INCLINATION":2.2134,"RA_OF_ASC_NODE":67.1481,"ARG_OF_PERICENTER":325.1506,"MEAN_ANOMALY":122.0526,"EPHEMERIS_TYPE":0,"CLASSIFICATION_TYPE":"U","NORAD_CAT_ID":45807,"ELEMENT_SET_NO":999,"REV_AT_EPOCH":2112,"BSTAR":0,"MEAN_MOTION_DOT":-3.53e-6,"MEAN_MOTION_DDOT":0},{"OBJECT_NAME":"GALAXY 30 (WAAS/PRN 135)","OBJECT_ID":"2020-056C","EPOCH":"2026-03-14T13:34:37.850304","MEAN_MOTION":1.00270006,"ECCENTRICITY":0.00020184,"INCLINATION":0.0263,"RA_OF_ASC_NODE":152.9208,"ARG_OF_PERICENTER":214.083,"MEAN_ANOMALY":243.8401,"EPHEMERIS_TYPE":0,"CLASSIFICATION_TYPE":"U","NORAD_CAT_ID":46114,"ELEMENT_SET_NO":999,"REV_AT_EPOCH":2034,"BSTAR":0,"MEAN_MOTION_DOT":0,"MEAN_MOTION_DDOT":0},{"OBJECT_NAME":"QZS-1R (QZSS/PRN 196)","OBJECT_ID":"2021-096A","EPOCH":"2026-03-14T11:37:12.588672","MEAN_MOTION":1.00287959,"ECCENTRICITY":0.0748407,"INCLINATION":37.2643,"RA_OF_ASC_NODE":80.9807,"ARG_OF_PERICENTER":269.9092,"MEAN_ANOMALY":130.192,"EPHEMERIS_TYPE":0,"CLASSIFICATION_TYPE":"U","NORAD_CAT_ID":49336,"ELEMENT_SET_NO":999,"REV_AT_EPOCH":1606,"BSTAR":0,"MEAN_MOTION_DOT":-2.13e-6,"MEAN_MOTION_DDOT":0},{"OBJECT_NAME":"QZS-6 (QZSS/PRN 200)","OBJECT_ID":"2025-023A","EPOCH":"2026-03-14T15:09:20.953728","MEAN_MOTION":1.00272179,"ECCENTRICITY":0.00022242,"INCLINATION":0.0214,"RA_OF_ASC_NODE":130.124,"ARG_OF_PERICENTER":232.7091,"MEAN_ANOMALY":127.228,"EPHEMERIS_TYPE":0,"CLASSIFICATION_TYPE":"U","NORAD_CAT_ID":62876,"ELEMENT_SET_NO":999,"REV_AT_EPOCH":401,"BSTAR":0,"MEAN_MOTION_DOT":0,"MEAN_MOTION_DDOT":0}]
