BEIDOU-3 G3 (PRN 143)   
1 45807U 20040A   26073.64325042 -.00000353  00000+0  00000+0 0  9994
2 45807   2.2134  67.1481 0004817 325.1506 122.0526  1.00270704 21122
GALAXY 30 (WAAS/PRN 135)
1 46114U 20056C   26073.56571586  .00000000  00000+0  00000+0 0  9998
2 46114   0.0263 152.9208 0002018 214.0830 243.8401  1.00270006 20342
QZS-1R (QZSS/PRN 196)   
1 49336U 21096A   26073.48417348 -.00000213  00000+0  00000+0 0  9995
2 49336  37.2643  80.9807 0748407 269.9092 130.1920  1.00287959 16061
QZS-6 (QZSS/PRN 200)    
1 62876U 25023A   26073.63149252  .00000000  00000+0  00000+0 0  9999
2 62876   0.0214 130.1240 0002224 232.7091 127.2280  1.00272179  4019
